[{"OBJECT_NAME":"STARLINK-31782","OBJECT_ID":"2024-080F","EPOCH":"2025-12-18T17:05:53.010240","MEAN_MOTION":15.2758318,"ECCENTRICITY":0.00012868,"INCLINATION":42.9991,"RA_OF_ASC_NODE":139.0781,"ARG_OF_PERICENTER":270.5741,"MEAN_ANOMALY":89.4963,"EPHEMERIS_TYPE":0,"CLASSIFICATION_TYPE":"U","NORAD_CAT_ID":59606,"ELEMENT_SET_NO":999,"REV_AT_EPOCH":9210,"BSTAR":2.0909846e-5,"MEAN_MOTION_DOT":3.13e-6,"MEAN_MOTION_DDOT":0},{"OBJECT_NAME":"STARLINK-31755","OBJECT_ID":"2024-080G","EPOCH":"2025-12-19T16:43:47.450208","MEAN_MOTION":15.27575281,"ECCENTRICITY":0.0001192,"INCLINATION":43.0002,"RA_OF_ASC_NODE":133.5714,"ARG_OF_PERICENTER":270.6526,"MEAN_ANOMALY":89.4189,"EPHEMERIS_TYPE":0,"CLASSIFICATION_TYPE":"U","NORAD_CAT_ID":59607,"ELEMENT_SET_NO":999,"REV_AT_EPOCH":9225,"BSTAR":-1.4259e-5,"MEAN_MOTION_DOT":-6.54e-6,"MEAN_MOTION_DDOT":0},{"OBJECT_NAME":"STARLINK-31585","OBJECT_ID":"2024-080H","EPOCH":"2025-12-19T10:19:05.589984","MEAN_MOTION":15.27577228,"ECCENTRICITY":0.0001057,"INCLINATION":43.0025,"RA_OF_ASC_NODE":127.2264,"ARG_OF_PERICENTER":277.8827,"MEAN_ANOMALY":82.1905,"EPHEMERIS_TYPE":0,"CLASSIFICATION_TYPE":"U","NORAD_CAT_ID":59608,"ELEMENT_SET_NO":999,"REV_AT_EPOCH":9231,"BSTAR":2.5559e-5,"MEAN_MOTION_DOT":4.41e-6,"MEAN_MOTION_DDOT":0},{"OBJECT_NAME":"STARLINK-31667","OBJECT_ID":"2024-080J","EPOCH":"2025-12-19T10:24:39.602016","MEAN_MOTION":15.27572371,"ECCENTRICITY":7.16e-5,"INCLINATION":43.0024,"RA_OF_ASC_NODE":127.2481,"ARG_OF_PERICENTER":253.396,"MEAN_ANOMALY":106.6813,"EPHEMERIS_TYPE":0,"CLASSIFICATION_TYPE":"U","NORAD_CAT_ID":59609,"ELEMENT_SET_NO":999,"REV_AT_EPOCH":9230,"BSTAR":4.3937e-5,"MEAN_MOTION_DOT":9.47e-6,"MEAN_MOTION_DDOT":0},{"OBJECT_NAME":"STARLINK-31729","OBJECT_ID":"2024-080K","EPOCH":"2025-12-19T16:21:07.598880","MEAN_MOTION":15.27576287,"ECCENTRICITY":0.0001177,"INCLINATION":43.002,"RA_OF_ASC_NODE":126.5336,"ARG_OF_PERICENTER":273.4196,"MEAN_ANOMALY":86.6521,"EPHEMERIS_TYPE":0,"CLASSIFICATION_TYPE":"U","NORAD_CAT_ID":59610,"ELEMENT_SET_NO":999,"REV_AT_EPOCH":9233,"BSTAR":8.0644e-6,"MEAN_MOTION_DOT":-4.0e-7,"MEAN_MOTION_DDOT":0},{"OBJECT_NAME":"STARLINK-31448","OBJECT_ID":"2024-080L","EPOCH":"2025-12-19T15:58:55.138080","MEAN_MOTION":15.27581811,"ECCENTRICITY":0.0001182,"INCLINATION":42.9991,"RA_OF_ASC_NODE":126.4147,"ARG_OF_PERICENTER":265.0301,"MEAN_ANOMALY":95.0415,"EPHEMERIS_TYPE":0,"CLASSIFICATION_TYPE":"U","NORAD_CAT_ID":59611,"ELEMENT_SET_NO":999,"REV_AT_EPOCH":9233,"BSTAR":1.6195e-5,"MEAN_MOTION_DOT":1.84e-6,"MEAN_MOTION_DDOT":0},{"OBJECT_NAME":"STARLINK-31748","OBJECT_ID":"2024-080M","EPOCH":"2025-12-19T17:05:19.932000","MEAN_MOTION":15.27572558,"ECCENTRICITY":0.0001306,"INCLINATION":43.0018,"RA_OF_ASC_NODE":125.9008,"ARG_OF_PERICENTER":268.7159,"MEAN_ANOMALY":91.3543,"EPHEMERIS_TYPE":0,"CLASSIFICATION_TYPE":"U","NORAD_CAT_ID":59612,"ELEMENT_SET_NO":999,"REV_AT_EPOCH":9351,"BSTAR":5.8973e-6,"MEAN_MOTION_DOT":-1.0e-6,"MEAN_MOTION_DDOT":0},{"OBJECT_NAME":"STARLINK-31746","OBJECT_ID":"2024-080N","EPOCH":"2025-12-19T16:49:20.472096","MEAN_MOTION":15.27569145,"ECCENTRICITY":2.27e-5,"INCLINATION":43.0011,"RA_OF_ASC_NODE":133.5724,"ARG_OF_PERICENTER":176.2152,"MEAN_ANOMALY":183.8701,"EPHEMERIS_TYPE":0,"CLASSIFICATION_TYPE":"U","NORAD_CAT_ID":59613,"ELEMENT_SET_NO":999,"REV_AT_EPOCH":9225,"BSTAR":6.1625e-6,"MEAN_MOTION_DOT":-9.2e-7,"MEAN_MOTION_DDOT":0},{"OBJECT_NAME":"STARLINK-31762","OBJECT_ID":"2024-080P","EPOCH":"2025-12-19T16:09:20.102112","MEAN_MOTION":15.27571237,"ECCENTRICITY":0.000126,"INCLINATION":43.0005,"RA_OF_ASC_NODE":129.9297,"ARG_OF_PERICENTER":271.6425,"MEAN_ANOMALY":88.4282,"EPHEMERIS_TYPE":0,"CLASSIFICATION_TYPE":"U","NORAD_CAT_ID":59614,"ELEMENT_SET_NO":999,"REV_AT_EPOCH":9229,"BSTAR":-8.8808e-6,"MEAN_MOTION_DOT":-5.06e-6,"MEAN_MOTION_DDOT":0},{"OBJECT_NAME":"STARLINK-31761","OBJECT_ID":"2024-080Q","EPOCH":"2025-12-19T16:48:42.878592","MEAN_MOTION":15.28006351,"ECCENTRICITY":0.0001628,"INCLINATION":43.0024,"RA_OF_ASC_NODE":130.0853,"ARG_OF_PERICENTER":276.372,"MEAN_ANOMALY":83.6946,"EPHEMERIS_TYPE":0,"CLASSIFICATION_TYPE":"U","NORAD_CAT_ID":59615,"ELEMENT_SET_NO":999,"REV_AT_EPOCH":9229,"BSTAR":0.00033564,"MEAN_MOTION_DOT":9.105e-5,"MEAN_MOTION_DDOT":0},{"OBJECT_NAME":"STARLINK-31768","OBJECT_ID":"2024-080R","EPOCH":"2025-12-19T19:13:56.276256","MEAN_MOTION":15.27579764,"ECCENTRICITY":0.0001273,"INCLINATION":43.0008,"RA_OF_ASC_NODE":129.1708,"ARG_OF_PERICENTER":268.0919,"MEAN_ANOMALY":91.9787,"EPHEMERIS_TYPE":0,"CLASSIFICATION_TYPE":"U","NORAD_CAT_ID":59616,"ELEMENT_SET_NO":999,"REV_AT_EPOCH":9231,"BSTAR":3.726e-5,"MEAN_MOTION_DOT":7.63e-6,"MEAN_MOTION_DDOT":0},{"OBJECT_NAME":"STARLINK-31769","OBJECT_ID":"2024-080S","EPOCH":"2025-12-19T16:31:32.232864","MEAN_MOTION":15.27572636,"ECCENTRICITY":0.0001145,"INCLINATION":43.0003,"RA_OF_ASC_NODE":130.0461,"ARG_OF_PERICENTER":270.7438,"MEAN_ANOMALY":89.3283,"EPHEMERIS_TYPE":0,"CLASSIFICATION_TYPE":"U","NORAD_CAT_ID":59617,"ELEMENT_SET_NO":999,"REV_AT_EPOCH":9229,"BSTAR":-2.6472e-5,"MEAN_MOTION_DOT":-9.9e-6,"MEAN_MOTION_DDOT":0},{"OBJECT_NAME":"STARLINK-31784","OBJECT_ID":"2024-080T","EPOCH":"2025-12-19T16:28:58.935072","MEAN_MOTION":15.2758087,"ECCENTRICITY":7.83e-5,"INCLINATION":42.9996,"RA_OF_ASC_NODE":133.4882,"ARG_OF_PERICENTER":268.4142,"MEAN_ANOMALY":91.662,"EPHEMERIS_TYPE":0,"CLASSIFICATION_TYPE":"U","NORAD_CAT_ID":59618,"ELEMENT_SET_NO":999,"REV_AT_EPOCH":9225,"BSTAR":-5.4143e-6,"MEAN_MOTION_DOT":-4.11e-6,"MEAN_MOTION_DDOT":0},{"OBJECT_NAME":"STARLINK-31777","OBJECT_ID":"2024-080U","EPOCH":"2025-12-19T19:42:50.616288","MEAN_MOTION":15.27578416,"ECCENTRICITY":0.0001401,"INCLINATION":42.9999,"RA_OF_ASC_NODE":132.7792,"ARG_OF_PERICENTER":269.8989,"MEAN_ANOMALY":90.1702,"EPHEMERIS_TYPE":0,"CLASSIFICATION_TYPE":"U","NORAD_CAT_ID":59619,"ELEMENT_SET_NO":999,"REV_AT_EPOCH":9227,"BSTAR":3.1197e-5,"MEAN_MOTION_DOT":5.96e-6,"MEAN_MOTION_DDOT":0},{"OBJECT_NAME":"STARLINK-31771","OBJECT_ID":"2024-080V","EPOCH":"2025-12-19T18:21:16.400160","MEAN_MOTION":16.03518407,"ECCENTRICITY":0.0022154,"INCLINATION":42.9756,"RA_OF_ASC_NODE":100.6462,"ARG_OF_PERICENTER":2.9422,"MEAN_ANOMALY":357.1584,"EPHEMERIS_TYPE":0,"CLASSIFICATION_TYPE":"U","NORAD_CAT_ID":59620,"ELEMENT_SET_NO":999,"REV_AT_EPOCH":9263,"BSTAR":0.00096127,"MEAN_MOTION_DOT":0.00647262,"MEAN_MOTION_DDOT":0.00020428},{"OBJECT_NAME":"STARLINK-31758","OBJECT_ID":"2024-080W","EPOCH":"2025-12-19T16:48:40.164768","MEAN_MOTION":15.2757475,"ECCENTRICITY":0.0001751,"INCLINATION":43.0038,"RA_OF_ASC_NODE":125.8106,"ARG_OF_PERICENTER":268.7045,"MEAN_ANOMALY":91.3606,"EPHEMERIS_TYPE":0,"CLASSIFICATION_TYPE":"U","NORAD_CAT_ID":59621,"ELEMENT_SET_NO":999,"REV_AT_EPOCH":9234,"BSTAR":2.7394e-5,"MEAN_MOTION_DOT":4.91e-6,"MEAN_MOTION_DDOT":0},{"OBJECT_NAME":"STARLINK-31774","OBJECT_ID":"2024-080X","EPOCH":"2025-12-19T19:16:29.606016","MEAN_MOTION":15.27576902,"ECCENTRICITY":0.0001253,"INCLINATION":42.9992,"RA_OF_ASC_NODE":125.724,"ARG_OF_PERICENTER":272.9802,"MEAN_ANOMALY":87.0906,"EPHEMERIS_TYPE":0,"CLASSIFICATION_TYPE":"U","NORAD_CAT_ID":59622,"ELEMENT_SET_NO":999,"REV_AT_EPOCH":9235,"BSTAR":-4.2608e-5,"MEAN_MOTION_DOT":-1.434e-5,"MEAN_MOTION_DDOT":0},{"OBJECT_NAME":"STARLINK-31763","OBJECT_ID":"2024-080Y","EPOCH":"2025-12-19T10:20:27.419424","MEAN_MOTION":15.27570338,"ECCENTRICITY":0.0001102,"INCLINATION":43.0008,"RA_OF_ASC_NODE":131.5519,"ARG_OF_PERICENTER":283.2069,"MEAN_ANOMALY":76.8659,"EPHEMERIS_TYPE":0,"CLASSIFICATION_TYPE":"U","NORAD_CAT_ID":59623,"ELEMENT_SET_NO":999,"REV_AT_EPOCH":9225,"BSTAR":5.0136e-5,"MEAN_MOTION_DOT":1.117e-5,"MEAN_MOTION_DDOT":0},{"OBJECT_NAME":"STARLINK-31749","OBJECT_ID":"2024-082A","EPOCH":"2025-12-19T01:17:41.781120","MEAN_MOTION":15.27591154,"ECCENTRICITY":0.00011098,"INCLINATION":43.001,"RA_OF_ASC_NODE":234.8653,"ARG_OF_PERICENTER":270.3157,"MEAN_ANOMALY":89.7567,"EPHEMERIS_TYPE":0,"CLASSIFICATION_TYPE":"U","NORAD_CAT_ID":59631,"ELEMENT_SET_NO":999,"REV_AT_EPOCH":9268,"BSTAR":-2.2633546e-5,"MEAN_MOTION_DOT":-8.85e-6,"MEAN_MOTION_DDOT":0},{"OBJECT_NAME":"STARLINK-31781","OBJECT_ID":"2024-082B","EPOCH":"2025-12-19T16:06:41.590080","MEAN_MOTION":15.27564,"ECCENTRICITY":0.0001761,"INCLINATION":43.0013,"RA_OF_ASC_NODE":217.5998,"ARG_OF_PERICENTER":279.7712,"MEAN_ANOMALY":80.294,"EPHEMERIS_TYPE":0,"CLASSIFICATION_TYPE":"U","NORAD_CAT_ID":59632,"ELEMENT_SET_NO":999,"REV_AT_EPOCH":9277,"BSTAR":3.3375e-5,"MEAN_MOTION_DOT":6.56e-6,"MEAN_MOTION_DDOT":0},{"OBJECT_NAME":"STARLINK-31541","OBJECT_ID":"2024-082C","EPOCH":"2025-12-18T02:01:33.430080","MEAN_MOTION":15.27580345,"ECCENTRICITY":0.00012344,"INCLINATION":43.0016,"RA_OF_ASC_NODE":233.5543,"ARG_OF_PERICENTER":266.7167,"MEAN_ANOMALY":93.3544,"EPHEMERIS_TYPE":0,"CLASSIFICATION_TYPE":"U","NORAD_CAT_ID":59633,"ELEMENT_SET_NO":999,"REV_AT_EPOCH":9260,"BSTAR":-8.717574e-6,"MEAN_MOTION_DOT":-5.02e-6,"MEAN_MOTION_DDOT":0},{"OBJECT_NAME":"STARLINK-31797","OBJECT_ID":"2024-082D","EPOCH":"2025-12-19T15:52:52.131072","MEAN_MOTION":15.27580209,"ECCENTRICITY":8.5e-5,"INCLINATION":43.0003,"RA_OF_ASC_NODE":231.6911,"ARG_OF_PERICENTER":321.1848,"MEAN_ANOMALY":38.8942,"EPHEMERIS_TYPE":0,"CLASSIFICATION_TYPE":"U","NORAD_CAT_ID":59634,"ELEMENT_SET_NO":999,"REV_AT_EPOCH":9261,"BSTAR":3.2503e-5,"MEAN_MOTION_DOT":6.33e-6,"MEAN_MOTION_DDOT":0},{"OBJECT_NAME":"STARLINK-31798","OBJECT_ID":"2024-082E","EPOCH":"2025-12-19T00:57:33.214464","MEAN_MOTION":15.27577376,"ECCENTRICITY":0.00012109,"INCLINATION":42.9993,"RA_OF_ASC_NODE":235.6163,"ARG_OF_PERICENTER":265.3601,"MEAN_ANOMALY":94.7113,"EPHEMERIS_TYPE":0,"CLASSIFICATION_TYPE":"U","NORAD_CAT_ID":59635,"ELEMENT_SET_NO":999,"REV_AT_EPOCH":9247,"BSTAR":2.4869006e-5,"MEAN_MOTION_DOT":4.22e-6,"MEAN_MOTION_DDOT":0}]
